
    {
        "ARG_OF_PERICENTER": 100.7758,
        "BSTAR": 0.0009139,
        "CLASSIFICATION_TYPE": "U",
        "ECCENTRICITY": 0.0005449,
        "ELEMENT_SET_NO": 999,
        "EPHEMERIS_TYPE": 0,
        "EPOCH": "2026-03-30T00:21:22.699584",
        "INCLINATION": 98.0813,
        "MEAN_ANOMALY": 259.4093,
        "MEAN_MOTION": 15.28896462,
        "MEAN_MOTION_DDOT": 0,
        "MEAN_MOTION_DOT": 0.00025644,
        "NORAD_CAT_ID": 40024,
        "OBJECT_ID": "2014-033Q",
        "OBJECT_NAME": "NANOSATC-BR1",
        "RA_OF_ASC_NODE": 114.5157,
        "REV_AT_EPOCH": 64187
    },
    {
        "ARG_OF_PERICENTER": 130.1014,
        "BSTAR": 0.0007331,
        "CLASSIFICATION_TYPE": "U",
        "ECCENTRICITY": 0.0010311,
        "ELEMENT_SET_NO": 999,
        "EPHEMERIS_TYPE": 0,
        "EPOCH": "2026-03-29T23:07:40.228320",
        "INCLINATION": 98.0998,
        "MEAN_ANOMALY": 230.1122,
        "MEAN_MOTION": 15.16937884,
        "MEAN_MOTION_DDOT": 0,
        "MEAN_MOTION_DOT": 0.00014422,
        "NORAD_CAT_ID": 40025,
        "OBJECT_ID": "2014-033R",
        "OBJECT_NAME": "QB50P1",
        "RA_OF_ASC_NODE": 94.6234,
        "REV_AT_EPOCH": 64101
    },
    {
        "ARG_OF_PERICENTER": 86.9007,
        "BSTAR": 0.00064598,
        "CLASSIFICATION_TYPE": "U",
        "ECCENTRICITY": 0.000959,
        "ELEMENT_SET_NO": 999,
        "EPHEMERIS_TYPE": 0,
        "EPOCH": "2026-03-29T21:20:36.500640",
        "INCLINATION": 98.0743,
        "MEAN_ANOMALY": 273.332,
        "MEAN_MOTION": 15.14041168,
        "MEAN_MOTION_DDOT": 0,
        "MEAN_MOTION_DOT": 0.0001169,
        "NORAD_CAT_ID": 40032,
        "OBJECT_ID": "2014-033Y",
        "OBJECT_NAME": "QB50P2",
        "RA_OF_ASC_NODE": 80.9078,
        "REV_AT_EPOCH": 64066
    },
    {
        "ARG_OF_PERICENTER": 196.1104,
        "BSTAR": 0.00024761,
        "CLASSIFICATION_TYPE": "U",
        "ECCENTRICITY": 0.001117,
        "ELEMENT_SET_NO": 999,
        "EPHEMERIS_TYPE": 0,
        "EPOCH": "2026-03-30T04:07:36.984576",
        "INCLINATION": 97.9885,
        "MEAN_ANOMALY": 163.9762,
        "MEAN_MOTION": 14.95247468,
        "MEAN_MOTION_DDOT": 0,
        "MEAN_MOTION_DOT": 2.667e-05,
        "NORAD_CAT_ID": 40037,
        "OBJECT_ID": "2014-033AD",
        "OBJECT_NAME": "PERSEUS-M2",
        "RA_OF_ASC_NODE": 38.1551,
        "REV_AT_EPOCH": 63897
    },
    {
        "ARG_OF_PERICENTER": 193.467,
        "BSTAR": 0.00021788,
        "CLASSIFICATION_TYPE": "U",
        "ECCENTRICITY": 0.0011078,
        "ELEMENT_SET_NO": 999,
        "EPHEMERIS_TYPE": 0,
        "EPOCH": "2026-03-30T02:00:47.307168",
        "INCLINATION": 97.9576,
        "MEAN_ANOMALY": 166.6256,
        "MEAN_MOTION": 14.95348242,
        "MEAN_MOTION_DDOT": 0,
        "MEAN_MOTION_DOT": 2.345e-05,
        "NORAD_CAT_ID": 40039,
        "OBJECT_ID": "2014-033AF",
        "OBJECT_NAME": "PERSEUS-M1",
        "RA_OF_ASC_NODE": 31.9659,
        "REV_AT_EPOCH": 63881
    },
    {
        "ARG_OF_PERICENTER": 71.9207,
        "BSTAR": 0.00097775,
        "CLASSIFICATION_TYPE": "U",
        "ECCENTRICITY": 0.0009232,
        "ELEMENT_SET_NO": 999,
        "EPHEMERIS_TYPE": 0,
        "EPOCH": "2026-03-30T00:20:16.995840",
        "INCLINATION": 98.1026,
        "MEAN_ANOMALY": 288.3037,
        "MEAN_MOTION": 15.30441785,
        "MEAN_MOTION_DDOT": 0,
        "MEAN_MOTION_DOT": 0.00028813,
        "NORAD_CAT_ID": 40042,
        "OBJECT_ID": "2014-033AJ",
        "OBJECT_NAME": "POLYITAN-1",
        "RA_OF_ASC_NODE": 107.9336,
        "REV_AT_EPOCH": 64147
    },
    {
        "ARG_OF_PERICENTER": 335.4112,
        "BSTAR": 0.00032682,
        "CLASSIFICATION_TYPE": "U",
        "ECCENTRICITY": 0.0048805,
        "ELEMENT_SET_NO": 999,
        "EPHEMERIS_TYPE": 0,
        "EPOCH": "2026-03-30T03:27:45.137952",
        "INCLINATION": 97.771,
        "MEAN_ANOMALY": 24.4776,
        "MEAN_MOTION": 14.84824632,
        "MEAN_MOTION_DDOT": 0,
        "MEAN_MOTION_DOT": 2.779e-05,
        "NORAD_CAT_ID": 40043,
        "OBJECT_ID": "2014-033AK",
        "OBJECT_NAME": "TIGRISAT",
        "RA_OF_ASC_NODE": 241.032,
        "REV_AT_EPOCH": 63389
    },
    {
        "ARG_OF_PERICENTER": 279.9131,
        "BSTAR": 0.00077875,
        "CLASSIFICATION_TYPE": "U",
        "ECCENTRICITY": 0.0038377,
        "ELEMENT_SET_NO": 999,
        "EPHEMERIS_TYPE": 0,
        "EPOCH": "2026-03-30T04:24:53.589312",
        "INCLINATION": 97.7144,
        "MEAN_ANOMALY": 79.776,
        "MEAN_MOTION": 14.97130275,
        "MEAN_MOTION_DDOT": 0,
        "MEAN_MOTION_DOT": 9.073e-05,
        "NORAD_CAT_ID": 40045,
        "OBJECT_ID": "2014-033AM",
        "OBJECT_NAME": "AEROCUBE 6A",
        "RA_OF_ASC_NODE": 257.0559,
        "REV_AT_EPOCH": 63479
    },
    {
        "ARG_OF_PERICENTER": 270.3019,
        "BSTAR": 0.00083589,
        "CLASSIFICATION_TYPE": "U",
        "ECCENTRICITY": 0.0036842,
        "ELEMENT_SET_NO": 999,
        "EPHEMERIS_TYPE": 0,
        "EPOCH": "2026-03-30T04:40:44.107680",
        "INCLINATION": 97.712,
        "MEAN_ANOMALY": 89.3982,
        "MEAN_MOTION": 14.98526868,
        "MEAN_MOTION_DDOT": 0,
        "MEAN_MOTION_DOT": 0.00010093,
        "NORAD_CAT_ID": 40046,
        "OBJECT_ID": "2014-033AN",
        "OBJECT_NAME": "AEROCUBE 6B",
        "RA_OF_ASC_NODE": 256.6975,
        "REV_AT_EPOCH": 63492
    },
    {
        "ARG_OF_PERICENTER": 265.0571,
        "BSTAR": 0.00017936,
        "CLASSIFICATION_TYPE": "U",
        "ECCENTRICITY": 0.0011498,
        "ELEMENT_SET_NO": 999,
        "EPHEMERIS_TYPE": 0,
        "EPOCH": "2026-03-30T04:21:00.476928",
        "INCLINATION": 98.3242,
        "MEAN_ANOMALY": 94.9327,
        "MEAN_MOTION": 14.81112784,
        "MEAN_MOTION_DDOT": 0,
        "MEAN_MOTION_DOT": 1.337e-05,
        "NORAD_CAT_ID": 40055,
        "OBJECT_ID": "2014-034C",
        "OBJECT_NAME": "CANX-4",
        "RA_OF_ASC_NODE": 321.5515,
        "REV_AT_EPOCH": 63283
    },
    {
        "ARG_OF_PERICENTER": 265.3088,
        "BSTAR": 0.00017964,
        "CLASSIFICATION_TYPE": "U",
        "ECCENTRICITY": 0.0011497,
        "ELEMENT_SET_NO": 999,
        "EPHEMERIS_TYPE": 0,
        "EPOCH": "2026-03-30T04:20:03.529824",
        "INCLINATION": 98.3245,
        "MEAN_ANOMALY": 94.681,
        "MEAN_MOTION": 14.81129629,
        "MEAN_MOTION_DDOT": 0,
        "MEAN_MOTION_DOT": 1.34e-05,
        "NORAD_CAT_ID": 40056,
        "OBJECT_ID": "2014-034D",
        "OBJECT_NAME": "CANX-5",
        "RA_OF_ASC_NODE": 321.5897,
        "REV_AT_EPOCH": 62364
    },
    {
        "ARG_OF_PERICENTER": 82.6195,
        "BSTAR": 0.0007024,
        "CLASSIFICATION_TYPE": "U",
        "ECCENTRICITY": 0.0003157,
        "ELEMENT_SET_NO": 999,
        "EPHEMERIS_TYPE": 0,
        "EPOCH": "2026-03-28T22:35:47.061888",
        "INCLINATION": 98.4237,
        "MEAN_ANOMALY": 277.5392,
        "MEAN_MOTION": 15.12193364,
        "MEAN_MOTION_DDOT": 0,
        "MEAN_MOTION_DOT": 0.00012061,
        "NORAD_CAT_ID": 40074,
        "OBJECT_ID": "2014-037F",
        "OBJECT_NAME": "UKUBE-1",
        "RA_OF_ASC_NODE": 82.8709,
        "REV_AT_EPOCH": 63642
    },
    {
        "ARG_OF_PERICENTER": 19.9571,
        "BSTAR": 0.00026582,
        "CLASSIFICATION_TYPE": "U",
        "ECCENTRICITY": 0.0014331,
        "ELEMENT_SET_NO": 999,
        "EPHEMERIS_TYPE": 0,
        "EPOCH": "2026-03-29T05:26:48.830784",
        "INCLINATION": 97.8994,
        "MEAN_ANOMALY": 340.2206,
        "MEAN_MOTION": 14.94279142,
        "MEAN_MOTION_DDOT": 0,
        "MEAN_MOTION_DOT": 2.8e-05,
        "NORAD_CAT_ID": 40119,
        "OBJECT_ID": "2014-049B",
        "OBJECT_NAME": "BRITE-PL2 (HEWELIUSZ)",
        "RA_OF_ASC_NODE": 199.673,
        "REV_AT_EPOCH": 62950
    }