NANOSATC-BR1            
1 40024U 14033Q   26089.01484606  .00025644  00000+0  91390-3 0  9990
2 40024  98.0813 114.5157 0005449 100.7758 259.4093 15.28896462641874
QB50P1                  
1 40025U 14033R   26088.96366005  .00014422  00000+0  73310-3 0  9990
2 40025  98.0998  94.6234 0010311 130.1014 230.1122 15.16937884641015
QB50P2                  
1 40032U 14033Y   26088.88931135  .00011690  00000+0  64598-3 0  9993
2 40032  98.0743  80.9078 0009590  86.9007 273.3320 15.14041168640660
PERSEUS-M2              
1 40037U 14033AD  26089.17195584  .00002667  00000+0  24761-3 0  9993
2 40037  97.9885  38.1551 0011170 196.1104 163.9762 14.95247468638974
PERSEUS-M1              
1 40039U 14033AF  26089.08388087  .00002345  00000+0  21788-3 0  9996
2 40039  97.9576  31.9659 0011078 193.4670 166.6256 14.95348242638811
POLYITAN-1              
1 40042U 14033AJ  26089.01408560  .00028813  00000+0  97775-3 0  9999
2 40042  98.1026 107.9336 0009232  71.9207 288.3037 15.30441785641470
TIGRISAT                
1 40043U 14033AK  26089.14427243  .00002779  00000+0  32682-3 0  9992
2 40043  97.7710 241.0320 0048805 335.4112  24.4776 14.84824632633891
AEROCUBE 6A             
1 40045U 14033AM  26089.18395358  .00009073  00000+0  77875-3 0  9996
2 40045  97.7144 257.0559 0038377 279.9131  79.7760 14.97130275634794
AEROCUBE 6B             
1 40046U 14033AN  26089.19495495  .00010093  00000+0  83589-3 0  9994
2 40046  97.7120 256.6975 0036842 270.3019  89.3982 14.98526868634927
CANX-4                  
1 40055U 14034C   26089.18125552  .00001337  00000+0  17936-3 0  9992
2 40055  98.3242 321.5515 0011498 265.0571  94.9327 14.81112784632838
CANX-5                  
1 40056U 14034D   26089.18059641  .00001340  00000+0  17964-3 0  9993
2 40056  98.3245 321.5897 0011497 265.3088  94.6810 14.81129629623649
UKUBE-1                 
1 40074U 14037F   26087.94151692  .00012061  00000+0  70240-3 0  9995
2 40074  98.4237  82.8709 0003157  82.6195 277.5392 15.12193364636422
BRITE-PL2 (HEWELIUSZ)   
1 40119U 14049B   26088.22695406  .00002800  00000+0  26582-3 0  9996
2 40119  97.8994 199.6730 0014331  19.9571 340.2206 14.94279142629504
